ONEWEB-0490             
1 54113U 22138A   22301.58335648  .00048839  00000+0  49641-2 0  9997
2 54113  87.4300 215.0546 0011175 271.8810  43.4479 14.90525234  1303
ONEWEB-0492             
1 54114U 22138B   22301.58335648  .00048849  00000+0  50062-2 0  9998
2 54114  87.4307 215.0552 0012613 274.1496  34.0862 14.90181010  1304
ONEWEB-0495             
1 54115U 22138C   22301.58335648  .00048688  00000+0  51119-2 0  9994
2 54115  87.4316 215.0605 0013251 292.9865 354.9286 14.89200356  1308
ONEWEB-0497             
1 54116U 22138D   22301.58335648  .00048822  00000+0  50330-2 0  9999
2 54116  87.4325 215.0573 0013241 279.1336  24.0447 14.89938560  1301
ONEWEB-0499             
1 54117U 22138E   22301.58335648  .00048854  00000+0  50012-2 0  9992
2 54117  87.4320 215.0546 0012456 273.9049  35.2198 14.90227336  1308
ONEWEB-0500             
1 54118U 22138F   22301.58335648  .00048895  00000+0  49098-2 0  9990
2 54118  87.4307 215.0502 0009008 274.5766  51.1744 14.91028170  1308
ONEWEB-0501             
1 54119U 22138G   22301.58335648  .00048749  00000+0  50537-2 0  9999
2 54119  87.4286 215.0549 0013733 282.9971  15.4090 14.89708240  1304
ONEWEB-0502             
1 54120U 22138H   22301.58335648  .00048844  00000+0  49372-2 0  9992
2 54120  87.4308 215.0515 0010000 270.7421  49.4165 14.90757016  1300
ONEWEB-0503             
1 54121U 22138J   22301.58335648  .00048849  00000+0  49969-2 0  9990
2 54121  87.4297 215.0555 0012295 273.6910  36.1265 14.90259033  1305
ONEWEB-0504             
1 54122U 22138K   22301.58335648  .00048915  00000+0  49235-2 0  9991
2 54122  87.4315 215.0553 0008994 274.9874  48.7783 14.90932761  1309
ONEWEB-0505             
1 54123U 22138L   22301.58335648  .00042929  00000+0  45026-2 0  9995
2 54123  87.4289 215.0544 0013248 289.5306   1.0489 14.89272072  1305
ONEWEB-0506             
1 54124U 22138M   22301.58335648  .00049146  00000+0  51278-2 0  9990
2 54124  87.4308 215.0579 0014144 289.0687   3.9864 14.89441121  1300
ONEWEB-0507             
1 54125U 22138N   22301.58335648  .00048970  00000+0  48860-2 0  9998
2 54125  87.4308 215.0508 0008070 281.1545  50.1090 14.91289917  1301
ONEWEB-0508             
1 54126U 22138P   22301.58335648  .00048880  00000+0  49650-2 0  9997
2 54126  87.4312 215.0540 0011013 271.5055  44.4869 14.90552954  1306
ONEWEB-0509             
1 54127U 22138Q   22301.58335648  .00048777  00000+0  50462-2 0  9996
2 54127  87.4330 215.0581 0013533 281.5370  18.6493 14.89792775  1303
ONEWEB-0510             
1 54128U 22138R   22301.58335648  .00048956  00000+0  48384-2 0  9996
2 54128  87.4302 215.0489 0008309 292.7966  46.3334 14.91668933  1303
ONEWEB-0511             
1 54129U 22138S   22301.58335648  .00048862  00000+0  49337-2 0  9992
2 54129  87.4314 215.0552 0009866 271.1725  49.8327 14.90800501  1309
ONEWEB-0512             
1 54130U 22138T   22301.58335648 -.00006998  00000+0 -73188-3 0  9992
2 54130  87.4281 215.0540 0013366 280.7649  20.5187 14.89858613  1307
ONEWEB-0513             
1 54131U 22138U   22301.58335648 -.00942250  00000+0 -11488+0 0  9994
2 54131  87.4375 215.0528 0008027 282.0229  28.5257 14.86339443  1303
ONEWEB-0514             
1 54132U 22138V   22301.58335648  .00048883  00000+0  49264-2 0  9998
2 54132  87.4308 215.0502 0009532 272.4436  50.2845 14.90879630  1304
ONEWEB-0515             
1 54133U 22138W   22301.58335648  .00048671  00000+0  48364-2 0  9994
2 54133  87.4285 215.0472 0008128 286.2407  48.4192 14.91454879  1305
ONEWEB-0516             
1 54134U 22138X   22301.58335648  .00048868  00000+0  49451-2 0  9991
2 54134  87.4311 215.0537 0010145 270.2450  49.0346 14.90710941  1303
ONEWEB-0517             
1 54135U 22138Y   22301.58335648  .00048808  00000+0  49760-2 0  9999
2 54135  87.4293 215.0551 0011695 272.7114  40.0379 14.90399075  1302
ONEWEB-0518             
1 54136U 22138Z   22301.58335648  .00048816  00000+0  50223-2 0  9995
2 54136  87.4309 215.0558 0013112 277.8225  26.9887 14.90020120  1302
ONEWEB-0519             
1 54137U 22138AA  22301.58335648  .00048952  00000+0  49116-2 0  9996
2 54137  87.4314 215.0539 0008881 275.2104  51.2440 14.91061090  1301
ONEWEB-0520             
1 54138U 22138AB  22301.58335648  .00048811  00000+0  49661-2 0  9996
2 54138  87.4323 215.0537 0011322 272.2135  42.3053 14.90485098  1303
ONEWEB-0521             
1 54139U 22138AC  22301.58335648  .00048655  00000+0  51237-2 0  9995
2 54139  87.4298 215.0570 0013159 295.2486 350.2071 14.89080233  1307
ONEWEB-0522             
1 54140U 22138AD  22301.58335648  .00048757  00000+0  50591-2 0  9992
2 54140  87.4320 215.0577 0013817 283.5960  14.0307 14.89670499  1306
ONEWEB-0523             
1 54141U 22138AE  22301.58335648  .00048952  00000+0  48439-2 0  9998
2 54141  87.4318 215.0511 0008152 291.6553  46.4865 14.91621360  1300
ONEWEB-0524             
1 54142U 22138AF  22301.58335648  .00048984  00000+0  48514-2 0  9998
2 54142  87.4289 215.0475 0008118 290.5955  46.8136 14.91585232  1305
ONEWEB-0525             
1 54143U 22138AG  22301.58335648  .00048798  00000+0  49819-2 0  9991
2 54143  87.4327 215.0541 0011927 273.0865  38.5002 14.90341829  1302
ONEWEB-0526             
1 54144U 22138AH  22301.58335648  .00048687  00000+0  50554-2 0  9997
2 54144  87.4302 215.0563 0013883 284.0910  12.9349 14.89641870  1303
ONEWEB-0529             
1 54145U 22138AJ  22301.58335648  .00048750  00000+0  50217-2 0  9995
2 54145  87.4291 215.0545 0013169 278.5088  25.3638 14.89970528  1306
ONEWEB-0531             
1 54146U 22138AK  22301.58335648  .00048938  00000+0  48565-2 0  9997
2 54146  87.4327 215.0526 0008174 287.8349  47.9022 14.91505903  1300
ONEWEB-0535             
1 54147U 22138AL  22301.58335648  .00048899  00000+0  49018-2 0  9998
2 54147  87.4311 215.0518 0008724 275.7826  51.4919 14.91098892  1301
ONEWEB-0536             
1 54148U 22138AM  22301.58335648  .00048859  00000+0  48655-2 0  9991
2 54148  87.4322 215.0523 0007948 283.5875  49.2786 14.91368671  1300
GSLV R/B                
1 54149U 22138AN  22301.53722691  .00001228  00000+0  13289-3 0  9990
2 54149  87.3903 215.0929 0022782 261.3826  98.4819 14.87224675   861
GONETS-M 23             
1 54150U 22139A   22301.52468838  .00000010  00000+0  00000+0 0  9993
2 54150  82.4988  93.2807 0011788 260.9042  99.0711 12.43421157   718
GONETS-M 24             
1 54151U 22139B   22301.52385260  .00000010  00000+0  00000+0 0  9991
2 54151  82.4923  93.2757 0012210 256.1621 103.8088 12.43605595   714
GONETS-M 25             
1 54152U 22139C   22301.52221371  .00000010  00000+0  00000+0 0  9994
2 54152  82.4967  93.2781 0013400 249.5822 110.3813 12.43968145   713
PROGRESS-MS 21          
1 54155U 22140A   22300.76448862  .00011267  00000+0  20888-3 0  9996
2 54155  51.6441  39.7919 0005932  11.0064 123.6531 15.49468146365746
SL-4 R/B                
1 54156U 22140B   22300.62287956  .06775505  12401-4  59186-3 0  9991
2 54156  51.6532  40.3983 0012436  72.6828  65.4354 16.38147608   237
NOAA 1 [-]              
1 04793U 70106A   22301.46274736 -.00000028  00000+0  96485-4 0  9990
2 04793 101.5413   1.8446 0031792  63.9464 307.0624 12.54008468374269
NOAA 2 (ITOS-D) [-]     
1 06235U 72082A   22301.55430222 -.00000037  00000+0  56410-4 0  9996
2 06235 101.9694 284.6864 0003873 176.7973 292.8845 12.53153124288640
NOAA 3 [-]              
1 06920U 73086A   22301.56058139 -.00000043  00000+0  22630-4 0  9990
2 06920 102.2239 283.5598 0006789  45.1337  70.6008 12.40349639217294
NOAA 4 [-]              
1 07529U 74089A   22301.53390866 -.00000036  00000+0  60520-4 0  9995
2 07529 101.9308 281.6341 0008689 208.6800 266.0505 12.53161751193219
NOAA 5 [-]              
1 09057U 76077A   22301.52551007 -.00000030  00000+0  11636-3 0  9994
2 09057 102.1180 268.1745 0009492 255.3309 219.5586 12.37775663 90204
TIROS N [-]             
1 11060U 78096A   22301.38801166  .00000137  00000+0  87013-4 0  9992
2 11060  98.6196 351.5074 0011614 118.6590 241.5755 14.18429282490459
NOAA 6 [-]              
1 11416U 79057A   22301.48304488  .00000231  00000+0  98978-4 0  9998
2 11416  98.6632 312.5475 0009565 221.7792 138.2663 14.33823437260589
NOAA 7 [-]              
1 12553U 81059A   22301.37089520  .00000053  00000+0  48830-4 0  9995
2 12553  98.9834 347.3389 0012516  97.6723 262.5873 14.17350893136627
NOAA 8 [-]              
1 13923U 83022A   22301.47844405  .00000120  00000+0  65258-4 0  9999
2 13923  98.6986 291.5770 0015044 176.4316 183.6975 14.28847415 61403
NOAA 9 [-]              
1 15427U 84123A   22301.56552359  .00000119  00000+0  83265-4 0  9993
2 15427  99.0630 276.1439 0015303 144.9586 326.5445 14.16237503955458
NOAA 10 [-]             
1 16969U 86073A   22301.50038649  .00000120  00000+0  65574-4 0  9991
2 16969  98.5821 285.2904 0011140 284.7272 184.8817 14.28236663879827
NOAA 11 [-]             
1 19531U 88089A   22301.53268876  .00000035  00000+0  38740-4 0  9998
2 19531  98.4389 283.3874 0011634 150.0866 210.0975 14.15330196759646
NOAA 12 [-]             
1 21263U 91032A   22301.52682135  .00000079  00000+0  51011-4 0  9996
2 21263  98.5217 297.6642 0012792 313.5856  46.4262 14.26022313635693
NOAA 13 [-]             
1 22739U 93050A   22301.51426342  .00000111  00000+0  81909-4 0  9998
2 22739  98.5220 274.7789 0008980 328.9558  31.1083 14.12874689505848
NOAA 14 [-]             
1 23455U 94089A   22301.56671073  .00000032  00000+0  37935-4 0  9997
2 23455  98.4403 321.0284 0008500 305.9944  54.0441 14.14215938435521
NOAA 15 [B]             
1 25338U 98030A   22301.50967007  .00000144  00000+0  78494-4 0  9997
2 25338  98.6333 329.2413 0009290 269.4258  90.5858 14.26187942271981
NOAA 16 [-]             
1 26536U 00055A   22301.56097232  .00000064  00000+0  56661-4 0  9991
2 26536  98.6203 355.7694 0011239 141.4319 218.7659 14.13353405436156
